[{"OBJECT_NAME":"CANX-2","OBJECT_ID":"2008-021H","EPOCH":"2026-03-09T21:45:30.862944","MEAN_MOTION":15.04798248,"ECCENTRICITY":0.00113052,"INCLINATION":97.8556,"RA_OF_ASC_NODE":46.8625,"ARG_OF_PERICENTER":28.5783,"MEAN_ANOMALY":331.606,"EPHEMERIS_TYPE":0,"CLASSIFICATION_TYPE":"U","NORAD_CAT_ID":32790,"ELEMENT_SET_NO":999,"REV_AT_EPOCH":96987,"BSTAR":0.0003958982,"MEAN_MOTION_DOT":5.531e-5,"MEAN_MOTION_DDOT":0},{"OBJECT_NAME":"STARLINK-6353","OBJECT_ID":"2023-088J","EPOCH":"2026-03-09T02:40:57.857664","MEAN_MOTION":15.025351,"ECCENTRICITY":0.00011101,"INCLINATION":43.0016,"RA_OF_ASC_NODE":110.5408,"ARG_OF_PERICENTER":269.8975,"MEAN_ANOMALY":90.174,"EPHEMERIS_TYPE":0,"CLASSIFICATION_TYPE":"U","NORAD_CAT_ID":57056,"ELEMENT_SET_NO":999,"REV_AT_EPOCH":15028,"BSTAR":-1.203375e-5,"MEAN_MOTION_DOT":-3.66e-6,"MEAN_MOTION_DDOT":0}]
